start=new Date('2022-12-30T00:00:00.000Z').valueOf();
sats=[{"MEAN_MOTION_DDOT":"0.0000000000000","LAUNCH_DATE":"2020-08-07","TLE_LINE2":"2 46066  53.0560 292.6314 0002414  54.5705 305.5510 15.06377634133500","SITE":"AFETR","NORAD_CAT_ID":"46066","TIME_SYSTEM":"UTC","GP_ID":"221734927","REV_AT_EPOCH":"13350","FILE":"3725790","COUNTRY_CODE":"US","CLASSIFICATION_TYPE":"U","ARG_OF_PERICENTER":"54.5705","EPOCH":"2022-12-29T07:51:13.227552","ECCENTRICITY":"0.00024140","RCS_SIZE":"LARGE","ELEMENT_SET_NO":"999","DECAY_DATE":null,"OBJECT_NAME":"STARLINK-1525","APOAPSIS":"548.954","BSTAR":"-0.00041325000000","OBJECT_ID":"2020-055AR","PERIAPSIS":"545.610","PERIOD":"95.594","REF_FRAME":"TEME","CENTER_NAME":"EARTH","EPHEMERIS_TYPE":"0","SEMIMAJOR_AXIS":"6925.417","OBJECT_TYPE":"PAYLOAD","MEAN_MOTION":"15.06377634","MEAN_ANOMALY":"305.5510","MEAN_ELEMENT_THEORY":"SGP4","RA_OF_ASC_NODE":"292.6314","TLE_LINE1":"1 46066U 20055AR  22363.32723643 -.00006428  00000-0 -41325-3 0  9990","INCLINATION":"53.0560","MEAN_MOTION_DOT":"-0.00006428"},{"NORAD_CAT_ID":"46067","MEAN_MOTION_DDOT":"0.0000000000000","LAUNCH_DATE":"2020-08-07","TLE_LINE2":"2 46067  53.0528 291.7154 0001390  83.4551 276.6597 15.06384285133546","SITE":"AFETR","REV_AT_EPOCH":"13354","GP_ID":"221735177","TIME_SYSTEM":"UTC","COUNTRY_CODE":"US","FILE":"3725790","ARG_OF_PERICENTER":"83.4551","CLASSIFICATION_TYPE":"U","ECCENTRICITY":"0.00013900","EPOCH":"2022-12-29T12:41:47.392800","DECAY_DATE":null,"OBJECT_NAME":"STARLINK-1529","RCS_SIZE":"LARGE","ELEMENT_SET_NO":"999","BSTAR":"-0.00015976000000","OBJECT_ID":"2020-055AS","APOAPSIS":"548.224","PERIOD":"95.593","REF_FRAME":"TEME","PERIAPSIS":"546.299","CENTER_NAME":"EARTH","EPHEMERIS_TYPE":"0","OBJECT_TYPE":"PAYLOAD","SEMIMAJOR_AXIS":"6925.397","MEAN_ANOMALY":"276.6597","MEAN_MOTION":"15.06384285","TLE_LINE1":"1 46067U 20055AS  22363.52902075 -.00002659  00000-0 -15976-3 0  9996","RA_OF_ASC_NODE":"291.7154","MEAN_ELEMENT_THEORY":"SGP4","INCLINATION":"53.0528","MEAN_MOTION_DOT":"-0.00002659"},{"MEAN_ELEMENT_THEORY":"SGP4","RA_OF_ASC_NODE":"293.1534","TLE_LINE1":"1 46068U 20055AT  22363.20833079 -.00002878  00000-0 -17439-3 0  9998","MEAN_MOTION_DOT":"-0.00002878","INCLINATION":"53.0543","SEMIMAJOR_AXIS":"6925.379","OBJECT_TYPE":"PAYLOAD","MEAN_MOTION":"15.06390023","MEAN_ANOMALY":"313.2631","CENTER_NAME":"EARTH","EPHEMERIS_TYPE":"0","PERIAPSIS":"545.659","REF_FRAME":"TEME","PERIOD":"95.593","APOAPSIS":"548.829","OBJECT_ID":"2020-055AT","BSTAR":"-0.00017439000000","EPOCH":"2022-12-29T04:59:59.780256","ECCENTRICITY":"0.00022890","RCS_SIZE":"LARGE","ELEMENT_SET_NO":"999","OBJECT_NAME":"STARLINK-1532","DECAY_DATE":null,"FILE":"3725790","COUNTRY_CODE":"US","CLASSIFICATION_TYPE":"U","ARG_OF_PERICENTER":"46.8549","TLE_LINE2":"2 46068  53.0543 293.1534 0002289  46.8549 313.2631 15.06390023133498","SITE":"AFETR","LAUNCH_DATE":"2020-08-07","MEAN_MOTION_DDOT":"0.0000000000000","NORAD_CAT_ID":"46068","TIME_SYSTEM":"UTC","GP_ID":"221735429","REV_AT_EPOCH":"13349"},{"CLASSIFICATION_TYPE":"U","ARG_OF_PERICENTER":"63.7930","FILE":"3725790","COUNTRY_CODE":"US","TIME_SYSTEM":"UTC","GP_ID":"221736179","REV_AT_EPOCH":"13350","SITE":"AFETR","TLE_LINE2":"2 46069  53.0543 293.0969 0001588  63.7930 296.3222 15.06380685133505","MEAN_MOTION_DDOT":"0.0000000000000","LAUNCH_DATE":"2020-08-07","NORAD_CAT_ID":"46069","APOAPSIS":"548.373","OBJECT_ID":"2020-055AU","BSTAR":"-0.00013057000000","RCS_SIZE":"LARGE","ELEMENT_SET_NO":"999","OBJECT_NAME":"STARLINK-1533","DECAY_DATE":null,"EPOCH":"2022-12-29T05:22:36.479712","ECCENTRICITY":"0.00015880","EPHEMERIS_TYPE":"0","CENTER_NAME":"EARTH","PERIAPSIS":"546.173","PERIOD":"95.593","REF_FRAME":"TEME","MEAN_MOTION_DOT":"-0.00002225","INCLINATION":"53.0543","RA_OF_ASC_NODE":"293.0969","MEAN_ELEMENT_THEORY":"SGP4","TLE_LINE1":"1 46069U 20055AU  22363.22403333 -.00002225  00000-0 -13057-3 0  9995","MEAN_MOTION":"15.06380685","MEAN_ANOMALY":"296.3222","SEMIMAJOR_AXIS":"6925.408","OBJECT_TYPE":"PAYLOAD"},{"NORAD_CAT_ID":"46070","MEAN_MOTION_DDOT":"0.0000000000000","LAUNCH_DATE":"2020-08-07","TLE_LINE2":"2 46070  53.0564 290.6512 0001379  69.9229 290.1908 15.06382873133047","SITE":"AFETR","REV_AT_EPOCH":"13304","GP_ID":"221744805","TIME_SYSTEM":"UTC","COUNTRY_CODE":"US","FILE":"3725914","ARG_OF_PERICENTER":"69.9229","CLASSIFICATION_TYPE":"U","ECCENTRICITY":"0.00013790","EPOCH":"2022-12-29T18:28:10.225920","DECAY_DATE":null,"OBJECT_NAME":"STARLINK-1536","ELEMENT_SET_NO":"999","RCS_SIZE":"LARGE","BSTAR":"-0.00018719000000","OBJECT_ID":"2020-055AV","APOAPSIS":"548.221","REF_FRAME":"TEME","PERIOD":"95.593","PERIAPSIS":"546.311","CENTER_NAME":"EARTH","EPHEMERIS_TYPE":"0","OBJECT_TYPE":"PAYLOAD","SEMIMAJOR_AXIS":"6925.401","MEAN_ANOMALY":"290.1908","MEAN_MOTION":"15.06382873","TLE_LINE1":"1 46070U 20055AV  22363.76956280 -.00003067  00000-0 -18719-3 0  9995","RA_OF_ASC_NODE":"290.6512","MEAN_ELEMENT_THEORY":"SGP4","INCLINATION":"53.0564","MEAN_MOTION_DOT":"-0.00003067"},{"REF_FRAME":"TEME","PERIOD":"95.594","PERIAPSIS":"546.090","CENTER_NAME":"EARTH","EPHEMERIS_TYPE":"0","OBJECT_TYPE":"PAYLOAD","SEMIMAJOR_AXIS":"6925.415","MEAN_ANOMALY":"301.3858","MEAN_MOTION":"15.06378407","TLE_LINE1":"1 46071U 20055AW  22363.52259703 -.00004925  00000-0 -31215-3 0  9996","MEAN_ELEMENT_THEORY":"SGP4","RA_OF_ASC_NODE":"291.7558","MEAN_MOTION_DOT":"-0.00004925","INCLINATION":"53.0538","NORAD_CAT_ID":"46071","SITE":"AFETR","TLE_LINE2":"2 46071  53.0538 291.7558 0001718  58.7299 301.3858 15.06378407133543","LAUNCH_DATE":"2020-08-07","MEAN_MOTION_DDOT":"0.0000000000000","REV_AT_EPOCH":"13354","GP_ID":"221734679","TIME_SYSTEM":"UTC","COUNTRY_CODE":"US","FILE":"3725790","ARG_OF_PERICENTER":"58.7299","CLASSIFICATION_TYPE":"U","ECCENTRICITY":"0.00017180","EPOCH":"2022-12-29T12:32:32.383392","OBJECT_NAME":"STARLINK-1538","DECAY_DATE":null,"ELEMENT_SET_NO":"999","RCS_SIZE":"LARGE","OBJECT_ID":"2020-055AW","BSTAR":"-0.00031215000000","APOAPSIS":"548.470"},{"INCLINATION":"53.0553","MEAN_MOTION_DOT":"-0.00001989","MEAN_ELEMENT_THEORY":"SGP4","RA_OF_ASC_NODE":"293.1305","TLE_LINE1":"1 46072U 20055AX  22363.21571873 -.00001989  00000-0 -11472-3 0  9998","MEAN_MOTION":"15.06388350","MEAN_ANOMALY":"296.9451","SEMIMAJOR_AXIS":"6925.384","OBJECT_TYPE":"PAYLOAD","EPHEMERIS_TYPE":"0","CENTER_NAME":"EARTH","PERIAPSIS":"546.212","REF_FRAME":"TEME","PERIOD":"95.593","APOAPSIS":"548.287","BSTAR":"-0.00011472000000","OBJECT_ID":"2020-055AX","RCS_SIZE":"LARGE","ELEMENT_SET_NO":"999","DECAY_DATE":null,"OBJECT_NAME":"STARLINK-1539","EPOCH":"2022-12-29T05:10:38.098272","ECCENTRICITY":"0.00014980","CLASSIFICATION_TYPE":"U","ARG_OF_PERICENTER":"63.1691","FILE":"3725224","COUNTRY_CODE":"US","TIME_SYSTEM":"UTC","REV_AT_EPOCH":"13295","GP_ID":"221702805","MEAN_MOTION_DDOT":"0.0000000000000","LAUNCH_DATE":"2020-08-07","SITE":"AFETR","TLE_LINE2":"2 46072  53.0553 293.1305 0001498  63.1691 296.9451 15.06388350132958","NORAD_CAT_ID":"46072"},{"RCS_SIZE":"LARGE","ELEMENT_SET_NO":"999","OBJECT_NAME":"STARLINK-1542","DECAY_DATE":null,"EPOCH":"2022-12-29T11:55:22.750176","ECCENTRICITY":"0.00003240","APOAPSIS":"547.482","OBJECT_ID":"2020-055AY","BSTAR":"-0.00036944000000","TIME_SYSTEM":"UTC","REV_AT_EPOCH":"13300","GP_ID":"221743995","TLE_LINE2":"2 46073  53.0545 291.8608 0000324  54.6426 305.4593 15.06385587133008","SITE":"AFETR","MEAN_MOTION_DDOT":"0.0000000000000","LAUNCH_DATE":"2020-08-07","NORAD_CAT_ID":"46073","CLASSIFICATION_TYPE":"U","ARG_OF_PERICENTER":"54.6426","FILE":"3725886","COUNTRY_CODE":"US","MEAN_MOTION":"15.06385587","MEAN_ANOMALY":"305.4593","SEMIMAJOR_AXIS":"6925.393","OBJECT_TYPE":"PAYLOAD","MEAN_MOTION_DOT":"-0.00005777","INCLINATION":"53.0545","MEAN_ELEMENT_THEORY":"SGP4","RA_OF_ASC_NODE":"291.8608","TLE_LINE1":"1 46073U 20055AY  22363.49679109 -.00005777  00000-0 -36944-3 0  9990","PERIAPSIS":"547.033","REF_FRAME":"TEME","PERIOD":"95.593","EPHEMERIS_TYPE":"0","CENTER_NAME":"EARTH"},{"CENTER_NAME":"EARTH","EPHEMERIS_TYPE":"0","PERIAPSIS":"545.716","REF_FRAME":"TEME","PERIOD":"95.592","MEAN_ELEMENT_THEORY":"SGP4","RA_OF_ASC_NODE":"293.1178","TLE_LINE1":"1 46074U 20055AZ  22363.21666343 -.00002154  00000-0 -12575-3 0  9997","INCLINATION":"53.0570","MEAN_MOTION_DOT":"-0.00002154","SEMIMAJOR_AXIS":"6925.359","OBJECT_TYPE":"PAYLOAD","MEAN_MOTION":"15.06396736","MEAN_ANOMALY":"301.0730","FILE":"3725790","COUNTRY_CODE":"US","CLASSIFICATION_TYPE":"U","ARG_OF_PERICENTER":"59.0473","MEAN_MOTION_DDOT":"0.0000000000000","LAUNCH_DATE":"2020-08-07","SITE":"AFETR","TLE_LINE2":"2 46074  53.0570 293.1178 0002177  59.0473 301.0730 15.06396736133488","NORAD_CAT_ID":"46074","TIME_SYSTEM":"UTC","REV_AT_EPOCH":"13348","GP_ID":"221734928","APOAPSIS":"548.731","BSTAR":"-0.00012575000000","OBJECT_ID":"2020-055AZ","EPOCH":"2022-12-29T05:11:59.720352","ECCENTRICITY":"0.00021770","RCS_SIZE":"LARGE","ELEMENT_SET_NO":"999","DECAY_DATE":null,"OBJECT_NAME":"STARLINK-1549"},{"PERIAPSIS":"545.868","REF_FRAME":"TEME","PERIOD":"95.593","EPHEMERIS_TYPE":"0","CENTER_NAME":"EARTH","MEAN_MOTION":"15.06383177","MEAN_ANOMALY":"305.6533","SEMIMAJOR_AXIS":"6925.400","OBJECT_TYPE":"PAYLOAD","MEAN_MOTION_DOT":"-0.00002227","INCLINATION":"53.0567","MEAN_ELEMENT_THEORY":"SGP4","RA_OF_ASC_NODE":"291.8204","TLE_LINE1":"1 46075U 20055BA  22363.50786086 -.00002227  00000-0 -13068-3 0  9996","TIME_SYSTEM":"UTC","GP_ID":"221711686","REV_AT_EPOCH":"13300","SITE":"AFETR","TLE_LINE2":"2 46075  53.0567 291.8204 0002018  54.4644 305.6533 15.06383177133007","LAUNCH_DATE":"2020-08-07","MEAN_MOTION_DDOT":"0.0000000000000","NORAD_CAT_ID":"46075","CLASSIFICATION_TYPE":"U","ARG_OF_PERICENTER":"54.4644","FILE":"3725627","COUNTRY_CODE":"US","RCS_SIZE":"LARGE","ELEMENT_SET_NO":"999","OBJECT_NAME":"STARLINK-1551","DECAY_DATE":null,"EPOCH":"2022-12-29T12:11:19.178304","ECCENTRICITY":"0.00020180","APOAPSIS":"548.663","OBJECT_ID":"2020-055BA","BSTAR":"-0.00013068000000"}];
